route,outlet,outlet_name,address_1,address_2,city,state,zip,serial,name,pin,modes,interval,txpower,ibeacon,eddystoneuid,eddystoneurl
401,1066231,1700 CALIFORNIA FS,1700 CALIFORNIA ST SUITE A,COI LOBBY,SAN FRANCISCO,CA,941094586,85,1066231−000085,34093409,5,100,14,F82FC8510000000000003BE02469B6AE00000055BE,E7F82FC8513BE02469B6AE000000000055,E7017261646975736E6574776F726B7307
401,4808753,WESTFIELD VALLEY FAIR MALL,2855 STEVENS CREEK BLVD,1 FL PIC I/S CAL PI,SANTA CLARA,CA,950506709,86,4808753−000086,34093409,5,100,14,F82FC8510000000000003BE02469B6AE00000056BE,E7F82FC8513BE02469B6AE000000000056,E7017261646975736E6574776F726B7307
401,3896162,SANTANA ROW PARK 1ALLEY,355  SANTANA ROW,ALLEY,SAN JOSE,CA,951282049,87,3896162−000087,34093409,5,100,14,F82FC8510000000000003BE02469B6AE00000057BE,E7F82FC8513BE02469B6AE000000000057,E7017261646975736E6574776F726B7307
401,4442083,PIER 39 GARAGE FS BOI,PIER 39,BOI 1ST LEVEL GARAG,SAN FRANCISCO,CA,941331007,88,4442083−000088,34093409,5,100,14,F82FC8510000000000003BE02469B6AE00000058BE,E7F82FC8513BE02469B6AE000000000058,E7017261646975736E6574776F726B7307
401,4442077,PIER 39 GARAGE FS BOI,PIER 39,BOI 1ST FLOOR,SAN FRANCISCO,CA,941331007,89,4442077−000089,34093409,5,100,14,F82FC8510000000000003BE02469B6AE00000059BE,E7F82FC8513BE02469B6AE000000000059,E7017261646975736E6574776F726B7307
403,3929748,SANTA CLARA UNIVERSITY,500  EL CAMINO REAL,BLDG 307 SWIG HALL,SANTA CLARA,CA,950530001,90,3929748−000090,34093409,5,100,14,F82FC8510000000000003BE02469B6AE0000005ABE,E7F82FC8513BE02469B6AE00000000005a,E7017261646975736E6574776F726B7307
404,4103337,CALIFORNIAS GREAT AMERICA,2401 AGNEW RD,EE ASSOCIATED SERVI,SANTA CLARA,CA,950541201,91,4103337−000091,34093409,5,100,14,F82FC8510000000000003BE02469B6AE0000005BBE,E7F82FC8513BE02469B6AE00000000005b,E7017261646975736E6574776F726B7307
402,1171852,GREAT MALL GFV BBBEYOND,447  GREAT MALL DR,BED BATH BEYOND,MILPITAS,CA,950358041,92,1171852−000092,34093409,5,100,14,F82FC8510000000000003BE02469B6AE0000005CBE,E7F82FC8513BE02469B6AE00000000005c,E7017261646975736E6574776F726B7307
402,3130935,GREAT MALL GFV 4EVER 21,447  GREAT MALL DR,FOREVER 21,MILPITAS,CA,950358041,93,3130935−000093,34093409,5,100,14,F82FC8510000000000003BE02469B6AE0000005DBE,E7F82FC8513BE02469B6AE00000000005d,E7017261646975736E6574776F726B7307
405,8593667,GOLDEN BEAR MOTEL FS COI,1620 SAN PABLO AVE,CANS VENDOR,BERKELEY,CA,947021393,94,8593667−000094,34093409,5,100,14,F82FC8510000000000003BE02469B6AE0000005EBE,E7F82FC8513BE02469B6AE00000000005e,E7017261646975736E6574776F726B7307
404,4103331,CALIFORNIAS GREAT AMERICA,2401 AGNEW RD,EE ASSOCIATED SERVI,SANTA CLARA,CA,950541201,95,4103331−000095,34093409,5,100,14,F82FC8510000000000003BE02469B6AE0000005FBE,E7F82FC8513BE02469B6AE00000000005f,E7017261646975736E6574776F726B7307
401,8985106,HOLIDAY 0323 INN FS BOI,1300 COLUMBUS AVE,4TH FLR VENDING ARE,SAN FRANCISCO,CA,941331328,96,8985106−000096,34093409,5,100,14,F82FC8510000000000003BE02469B6AE00000060BE,E7F82FC8513BE02469B6AE000000000060,E7017261646975736E6574776F726B7307
401,3393332,AMC THEATERS #04340,1000 VAN NESS AVE,I/S FRNT MULTI,SAN FRANCISCO,CA,941096973,97,3393332−000097,34093409,5,100,14,F82FC8510000000000003BE02469B6AE00000061BE,E7F82FC8513BE02469B6AE000000000061,E7017261646975736E6574776F726B7307
401,9431583,UNIV OF SAN FRANCISCO,2130 FULTON ST,KENDRICK HALL STL,SAN FRANCISCO,CA,941171080,98,9431583−000098,34093409,5,100,14,F82FC8510000000000003BE02469B6AE00000062BE,E7F82FC8513BE02469B6AE000000000062,E7017261646975736E6574776F726B7307
401,8980076,HOLIDAY 0323 INN FS BOI,1300 COLUMBUS AVE,1ST FL LOBBY VEND A,SAN FRANCISCO,CA,941331328,99,8980076−000099,34093409,5,100,14,F82FC8510000000000003BE02469B6AE00000063BE,E7F82FC8513BE02469B6AE000000000063,E7017261646975736E6574776F726B7307
401,3918100,VG EAVES WEST VALLEY,700  SARATOGA AVE,O/S NEAR POOL 1 20Z,SAN JOSE,CA,951292405,100,3918100−000100,34093409,5,100,14,F82FC8510000000000003BE02469B6AE00000064BE,E7F82FC8513BE02469B6AE000000000064,E7017261646975736E6574776F726B7307
405,2025197,VENDCO COURTYARD APTS,1465 65TH ST,BOI FITNESS CENTER,EMERYVILLE,CA,946081062,101,2025197−000101,34093409,5,100,14,F82FC8510000000000003BE02469B6AE00000065BE,E7F82FC8513BE02469B6AE000000000065,E7017261646975736E6574776F726B7307
402,1073005,CASA DE AMIGOS FS COI,1085 TASMAN DR,MAIN CLUB HOUSE RV8,SUNNYVALE,CA,940895001,102,1073005−000102,34093409,5,100,14,F82FC8510000000000003BE02469B6AE00000066BE,E7F82FC8513BE02469B6AE000000000066,E7017261646975736E6574776F726B7307
402,1914004,EL DORADO MOBIL PARK FS COI,600  E WEDDELL DR,COI INSIDE,SUNNYVALE,CA,940894732,103,1914004−000103,34093409,5,100,14,F82FC8510000000000003BE02469B6AE00000067BE,E7F82FC8513BE02469B6AE000000000067,E7017261646975736E6574776F726B7307
401,3896134,WVF MALL CPK1ST FLOOR #2,2855 STEVENS CREEK BLVD,I/S MALL ENT C PARK,SANTA CLARA,CA,950506709,104,3896134−000104,34093409,5,100,14,F82FC8510000000000003BE02469B6AE00000068BE,E7F82FC8513BE02469B6AE000000000068,E7017261646975736E6574776F726B7307
401,3918094,WESTGATE MALL,1600 SARATOGA AVE,FS BOI I/S ANY MOUN,SAN JOSE,CA,951295101,105,3918094−000105,34093409,5,100,14,F82FC8510000000000003BE02469B6AE00000069BE,E7F82FC8513BE02469B6AE000000000069,E7017261646975736E6574776F726B7307
401,9996982,WESTFIELD VALLEY FAIR MALL,2855 STEVENS CREEK BLVD,PRKG B 2 FL ELEVATO,SANTA CLARA,CA,950506709,106,9996982−000106,34093409,5,100,14,F82FC8510000000000003BE02469B6AE0000006ABE,E7F82FC8513BE02469B6AE00000000006a,E7017261646975736E6574776F726B7307
401,9996985,WESTFIELD VALLEY FAIR MALL,2855 STEVENS CREEK BLVD,O/S PRKG B 1 FL,SANTA CLARA,CA,950506709,107,9996985−000107,34093409,5,100,14,F82FC8510000000000003BE02469B6AE0000006BBE,E7F82FC8513BE02469B6AE00000000006b,E7017261646975736E6574776F726B7307
403,1849020,VG ALMADEN APTS,1501 ALMADEN EXPY,BOI O/S OFF 20Z,SAN JOSE,CA,951251259,108,1849020−000108,34093409,5,100,14,F82FC8510000000000003BE02469B6AE0000006CBE,E7F82FC8513BE02469B6AE00000000006c,E7017261646975736E6574776F726B7307
401,2116158,WESTFIELD VALLEY FAIR MALL,2855 STEVENS CREEK BLVD,PRKNG C 2 I/S LL CA,SANTA CLARA,CA,950506709,109,2116158−000109,34093409,5,100,14,F82FC8510000000000003BE02469B6AE0000006DBE,E7F82FC8513BE02469B6AE00000000006d,E7017261646975736E6574776F726B7307
410,4891777,LIVERMORE VALLEY PREMIUM,2774 PARAGON OUTLETS DR,RESTROOM BESIDE MIC,LIVERMORE,CA,94551,110,4891777−000110,34093409,5,100,14,F82FC8510000000000003BE02469B6AE0000006EBE,E7F82FC8513BE02469B6AE00000000006e,E7017261646975736E6574776F726B7307
401,4442079,PIER 39 GARAGE FS BOI,PIER 39,BOI 3RD FLOOR GARAG,SAN FRANCISCO,CA,941331007,111,4442079−000111,34093409,5,100,14,F82FC8510000000000003BE02469B6AE0000006FBE,E7F82FC8513BE02469B6AE00000000006f,E7017261646975736E6574776F726B7307
401,3393331,AMC THEATERS #04340,1000 VAN NESS AVE,I/S 7TH FLR MULTI,SAN FRANCISCO,CA,941096973,112,3393331−000112,34093409,5,100,14,F82FC8510000000000003BE02469B6AE00000070BE,E7F82FC8513BE02469B6AE000000000070,E7017261646975736E6574776F726B7307
410,4837977,LIVERMORE VALLEY PREMIUM,2774 PARAGON OUTLETS DR,END OF EMPLOYEE HAL,LIVERMORE,CA,945514204,113,4837977−000113,34093409,5,100,14,F82FC8510000000000003BE02469B6AE00000071BE,E7F82FC8513BE02469B6AE000000000071,E7017261646975736E6574776F726B7307
405,3130825,POINT ALAMEDA APTS FS COI,1380 BALLENA BLVD,COI OUTSIDE BY POOL,ALAMEDA,CA,945013607,114,3130825−000114,34093409,5,100,14,F82FC8510000000000003BE02469B6AE00000072BE,E7F82FC8513BE02469B6AE000000000072,E7017261646975736E6574776F726B7307
401,4358960,VG PLAZA SUITES HOTEL THE,3100 LAKESIDE DR,I/S PLAZA SUITES BR,SANTA CLARA,CA,950542804,115,4358960−000115,34093409,5,100,14,F82FC8510000000000003BE02469B6AE00000073BE,E7F82FC8513BE02469B6AE000000000073,E7017261646975736E6574776F726B7307
402,2924910,UHAUL,1575 BAYSHORE BLVD,I/S WAITING RM MULT,SAN FRANCISCO,CA,941243111,116,2924910−000116,34093409,5,100,14,F82FC8510000000000003BE02469B6AE00000074BE,E7F82FC8513BE02469B6AE000000000074,E7017261646975736E6574776F726B7307
401,4240908,STANFORD COURT HOTEL,905  CALIFORNIA ST,I/S FRNT MULTI,SAN FRANCISCO,CA,941082289,117,4240908−000117,34093409,5,100,14,F82FC8510000000000003BE02469B6AE00000075BE,E7F82FC8513BE02469B6AE000000000075,E7017261646975736E6574776F726B7307
401,2984515,WEST FIELD MALL,865  MARKET ST,C LEVEL PACSUN STOR,SAN FRANCISCO,CA,941031900,118,2984515−000118,34093409,5,100,14,F82FC8510000000000003BE02469B6AE00000076BE,E7F82FC8513BE02469B6AE000000000076,E7017261646975736E6574776F726B7307
402,3929722,BUDGET INN,16500FOOTHILL BLVD,I/S 2ND FL 20Z,SAN LEANDRO,CA,945781509,119,3929722−000119,34093409,5,100,14,F82FC8510000000000003BE02469B6AE00000077BE,E7F82FC8513BE02469B6AE000000000077,E7017261646975736E6574776F726B7307
401,8980083,HOLIDAY 0323 INN FS BOI,1300 COLUMBUS AVE,3RD FLR VEND AREA,SAN FRANCISCO,CA,941331328,120,8980083−000120,34093409,5,100,14,F82FC8510000000000003BE02469B6AE00000078BE,E7F82FC8513BE02469B6AE000000000078,E7017261646975736E6574776F726B7307
404,4103353,CALIFORNIAS GREAT AMERICA,2401 AGNEW RD,GAME GALLERY 2 STL,SANTA CLARA,CA,950541201,121,4103353−000121,34093409,5,100,14,F82FC8510000000000003BE02469B6AE00000079BE,E7F82FC8513BE02469B6AE000000000079,E7017261646975736E6574776F726B7307
403,1452592,VILLAGES PRO SHOP,5000 CRIBARI LN,PRO SHOP,SAN JOSE,CA,951351309,122,1452592−000122,34093409,5,100,14,F82FC8510000000000003BE02469B6AE0000007ABE,E7F82FC8513BE02469B6AE00000000007a,E7017261646975736E6574776F726B7307
402,3957214,GREAT MALL BOI OS ENTR4,447  GREAT MALL DR,O/S ENTRANCE 4 20Z,MILPITAS,CA,950358041,123,3957214−000123,34093409,5,100,14,F82FC8510000000000003BE02469B6AE0000007BBE,E7F82FC8513BE02469B6AE00000000007b,E7017261646975736E6574776F726B7307
405,1359011,VG BAY STREET APTS,5684 BAY ST,4TH FL NEXT TO BATH,EMERYVILLE,CA,946082451,124,1359011−000124,34093409,5,100,14,F82FC8510000000000003BE02469B6AE0000007CBE,E7F82FC8513BE02469B6AE00000000007c,E7017261646975736E6574776F726B7307
401,1342814,COVA HOTEL,655  ELLIS ST,7TH FL COVA HOTEL,SAN FRANCISCO,CA,941098027,125,1342814−000125,34093409,5,100,14,F82FC8510000000000003BE02469B6AE0000007DBE,E7F82FC8513BE02469B6AE00000000007d,E7017261646975736E6574776F726B7307
405,1887989,VEOLIA TRANSPORTATION,1750 BROADWAY,EMPLOYEE LOUNGE RV6,OAKLAND,CA,946122106,126,1887989−000126,34093409,5,100,14,F82FC8510000000000003BE02469B6AE0000007EBE,E7F82FC8513BE02469B6AE00000000007e,E7017261646975736E6574776F726B7307
401,8541816,UNIV OF SAN FRANCISCO,2130 FULTON ST,HAYES HEALY STL,SAN FRANCISCO,CA,941171080,127,8541816−000127,34093409,5,100,14,F82FC8510000000000003BE02469B6AE0000007FBE,E7F82FC8513BE02469B6AE00000000007f,E7017261646975736E6574776F726B7307
405,9976179,HOLIDAY INN EXPRESS,66   AIRPORT ACCESS RD,FS BOI 1 FL/COKE BT,OAKLAND,CA,946031078,128,9976179−000128,34093409,5,100,14,F82FC8510000000000003BE02469B6AE00000080BE,E7F82FC8513BE02469B6AE000000000080,E7017261646975736E6574776F726B7307
401,9671011,GOLDEN GATE FERRY FS BOI,1    FERRY PLZ,BOI OUTSIDE NEXT TO,SAN FRANCISCO,CA,941114212,129,9671011−000129,34093409,5,100,14,F82FC8510000000000003BE02469B6AE00000081BE,E7F82FC8513BE02469B6AE000000000081,E7017261646975736E6574776F726B7307
402,8064286,GOOD NITE INN,4135 CUSHING PKWY,FS DOI LOBBY COKE,FREMONT,CA,945386464,130,8064286−000130,34093409,5,100,14,F82FC8510000000000003BE02469B6AE00000082BE,E7F82FC8513BE02469B6AE000000000082,E7017261646975736E6574776F726B7307
401,1141280,UNIV OF SAN FRANCISCO,2130 FULTON ST,LOYALA VILLAGE BLDG,SAN FRANCISCO,CA,941171080,131,1141280−000131,34093409,5,100,14,F82FC8510000000000003BE02469B6AE00000083BE,E7F82FC8513BE02469B6AE000000000083,E7017261646975736E6574776F726B7307
401,3859381,PALO ALTO TRAVELODGE FS BOI,3255 EL CAMINO REAL,BOI OUTSIDE,PALO ALTO,CA,943062210,132,3859381−000132,34093409,5,100,14,F82FC8510000000000003BE02469B6AE00000084BE,E7F82FC8513BE02469B6AE000000000084,E7017261646975736E6574776F726B7307
410,4837969,LIVERMORE VALLEY PREMIUM,2774 PARAGON OUTLETS DR,RESTROOM BESIDE GOD,LIVERMORE,CA,945514204,133,4837969−000133,34093409,5,100,14,F82FC8510000000000003BE02469B6AE00000085BE,E7F82FC8513BE02469B6AE000000000085,E7017261646975736E6574776F726B7307
402,3696687,LA QUINTA INN AND SUITES,1390 EL CAMINO REAL,I/S 3RD FL 12Z,MILLBRAE,CA,940301411,134,3696687−000134,34093409,5,100,14,F82FC8510000000000003BE02469B6AE00000086BE,E7F82FC8513BE02469B6AE000000000086,E7017261646975736E6574776F726B7307
410,4870386,LIVERMORE VALLEY PREMIUM,2774 LIVERMORE OUTLETS DR,I/S NEAR MICHAEL KO,LIVERMORE,CA,945514204,135,4870386−000135,34093409,5,100,14,F82FC8510000000000003BE02469B6AE00000087BE,E7F82FC8513BE02469B6AE000000000087,E7017261646975736E6574776F726B7307
402,2471929,THE DYLAN,110  S EL CAMINO REAL,BOI OUTSIDE/OFFICE,MILLBRAE,CA,940303121,136,2471929−000136,34093409,5,100,14,F82FC8510000000000003BE02469B6AE00000088BE,E7F82FC8513BE02469B6AE000000000088,E7017261646975736E6574776F726B7307
401,5984992,UNIV OF SAN FRANCISCO,2130 FULTON ST,KENDRICK HALL CSD,SAN FRANCISCO,CA,941171080,137,5984992−000137,34093409,5,100,14,F82FC8510000000000003BE02469B6AE00000089BE,E7F82FC8513BE02469B6AE000000000089,E7017261646975736E6574776F726B7307
405,1647357,SUMMER HOUSE FS,433  BUENA VISTA AVE,BLDG 525 1ST FLOOR,ALAMEDA,CA,945011956,138,1647357−000138,34093409,5,100,14,F82FC8510000000000003BE02469B6AE0000008ABE,E7F82FC8513BE02469B6AE00000000008a,E7017261646975736E6574776F726B7307
401,3918096,WESTGATE MALL,1600 SARATOGA AVE,FS BOI I/S ANY MOUN,SAN JOSE,CA,951295101,139,3918096−000139,34093409,5,100,14,F82FC8510000000000003BE02469B6AE0000008BBE,E7F82FC8513BE02469B6AE00000000008b,E7017261646975736E6574776F726B7307
403,3929769,SANTA CLARA UNIVERSITY,500  EL CAMINO REAL,BLDG 506 SAN FILIPP,SANTA CLARA,CA,950530001,140,3929769−000140,34093409,5,100,14,F82FC8510000000000003BE02469B6AE0000008CBE,E7F82FC8513BE02469B6AE00000000008c,E7017261646975736E6574776F726B7307
401,2871359,HEARTLAND HOTEL FS COI,909  GEARY ST,COI CONFERENCE ROOM,SAN FRANCISCO,CA,941099056,141,2871359−000141,34093409,5,100,14,F82FC8510000000000003BE02469B6AE0000008DBE,E7F82FC8513BE02469B6AE00000000008d,E7017261646975736E6574776F726B7307
401,3899955,SANTANA ROW PARK 1CB,355  SANTANA ROW,CRATE N BARREL,SAN JOSE,CA,951282049,142,3899955−000142,34093409,5,100,14,F82FC8510000000000003BE02469B6AE0000008EBE,E7F82FC8513BE02469B6AE00000000008e,E7017261646975736E6574776F726B7307
401,4442078,PIER 39 GARAGE FS BOI,PIER 39,BOI 3RD FLOOR GARAG,SAN FRANCISCO,CA,941331007,143,4442078−000143,34093409,5,100,14,F82FC8510000000000003BE02469B6AE0000008FBE,E7F82FC8513BE02469B6AE00000000008f,E7017261646975736E6574776F726B7307
401,9671016,GOLDEN GATE FERRY FS BOI,1    FERRY PLZ,BOI OUTSIDE,SAN FRANCISCO,CA,941114212,144,9671016−000144,34093409,5,100,14,F82FC8510000000000003BE02469B6AE00000090BE,E7F82FC8513BE02469B6AE000000000090,E7017261646975736E6574776F726B7307
402,9621071,VG LA QUINTA INN,20   AIPORT BLVD,659 1 FL FRNT BLDG,SOUTH SAN FRANCIS,CA,94080,145,9621071−000145,34093409,5,100,14,F82FC8510000000000003BE02469B6AE00000091BE,E7F82FC8513BE02469B6AE000000000091,E7017261646975736E6574776F726B7307
403,3929762,SANTA CLARA UNIVERSITY,500  EL CAMINO REAL,BLDG 1260 VILLAS CA,SANTA CLARA,CA,950530001,146,3929762−000146,34093409,5,100,14,F82FC8510000000000003BE02469B6AE00000092BE,E7F82FC8513BE02469B6AE000000000092,E7017261646975736E6574776F726B7307
404,4096810,CALIFORNIAS GREAT AMERICA,2401 AGNEW RD,EE FMC BREAKROOM 1,SANTA CLARA,CA,950541201,147,4096810−000147,34093409,5,100,14,F82FC8510000000000003BE02469B6AE00000093BE,E7F82FC8513BE02469B6AE000000000093,E7017261646975736E6574776F726B7307
403,3929756,SANTA CLARA UNIVERSITY,500  EL CAMINO REAL,BLDG 211 DALY CTR,SANTA CLARA,CA,950530001,148,3929756−000148,34093409,5,100,14,F82FC8510000000000003BE02469B6AE00000094BE,E7F82FC8513BE02469B6AE000000000094,E7017261646975736E6574776F726B7307
404,4096811,CALIFORNIAS GREAT AMERICA,2401 AGNEW RD,EE FMC BREAKROOM 2,SANTA CLARA,CA,950541201,149,4096811−000149,34093409,5,100,14,F82FC8510000000000003BE02469B6AE00000095BE,E7F82FC8513BE02469B6AE000000000095,E7017261646975736E6574776F726B7307
401,3918097,WESTGATE MALL,1600 SARATOGA AVE,FS BOI I/S BY ROSS,SAN JOSE,CA,951295101,150,3918097−000150,34093409,5,100,14,F82FC8510000000000003BE02469B6AE00000096BE,E7F82FC8513BE02469B6AE000000000096,E7017261646975736E6574776F726B7307
405,6091724,SAN LEANDRO RACQUET CL FS,2600 SAN LEANDRO BLVD,,SAN LEANDRO,CA,945785066,151,6091724−000151,34093409,5,100,14,F82FC8510000000000003BE02469B6AE00000097BE,E7F82FC8513BE02469B6AE000000000097,E7017261646975736E6574776F726B7307
404,4103370,CALIFORNIAS GREAT AMERICA,2401 AGNEW RD,GAME GALLERY 1 CSD,SANTA CLARA,CA,950541201,152,4103370−000152,34093409,5,100,14,F82FC8510000000000003BE02469B6AE00000098BE,E7F82FC8513BE02469B6AE000000000098,E7017261646975736E6574776F726B7307
401,8854903,UNIV OF SAN FRANCISCO,2130 FULTON ST,HAYES HEALY CSD,SAN FRANCISCO,CA,941171080,153,8854903−000153,34093409,5,100,14,F82FC8510000000000003BE02469B6AE00000099BE,E7F82FC8513BE02469B6AE000000000099,E7017261646975736E6574776F726B7307
404,4096812,CALIFORNIAS GREAT AMERICA,2401 AGNEW RD,EE FMC BREAKROOM 3,SANTA CLARA,CA,950541201,154,4096812−000154,34093409,5,100,14,F82FC8510000000000003BE02469B6AE0000009ABE,E7F82FC8513BE02469B6AE00000000009a,E7017261646975736E6574776F726B7307
401,1054242,SHRI JAI RANCCHODRAI FS BOI,3550 EL CAMINO REAL,IN GAME ROOM,SANTA CLARA,CA,950512136,155,1054242−000155,34093409,5,100,14,F82FC8510000000000003BE02469B6AE0000009BBE,E7F82FC8513BE02469B6AE00000000009b,E7017261646975736E6574776F726B7307
401,1647160,SHERATON HOTEL FISHERMAN WHARF,2500 MASON ST,2ND FLOOR MIDDLE,SAN FRANCISCO,CA,941331499,156,1647160−000156,34093409,5,100,14,F82FC8510000000000003BE02469B6AE0000009CBE,E7F82FC8513BE02469B6AE00000000009c,E7017261646975736E6574776F726B7307
403,3929754,SANTA CLARA UNIVERSITY,500  EL CAMINO REAL,BLDG 505 CAMPISI HA,SANTA CLARA,CA,950530001,157,3929754−000157,34093409,5,100,14,F82FC8510000000000003BE02469B6AE0000009DBE,E7F82FC8513BE02469B6AE00000000009d,E7017261646975736E6574776F726B7307
401,2956088,CALIFORNIA WELCOME CENTER,B12  PIER 39,I/S FRNT OF OFC MUL,SAN FRANCISCO,CA,94133,158,2956088−000158,34093409,5,100,14,F82FC8510000000000003BE02469B6AE0000009EBE,E7F82FC8513BE02469B6AE00000000009e,E7017261646975736E6574776F726B7307
401,8980081,HOLIDAY 0323 INN FS BOI,495  BEACH ST,2ND FLR VENDING ARE,SAN FRANCISCO,CA,941331328,159,8980081−000159,34093409,5,100,14,F82FC8510000000000003BE02469B6AE0000009FBE,E7F82FC8513BE02469B6AE00000000009f,E7017261646975736E6574776F726B7307
401,8553943,UNIV OF SAN FRANCISCO,2130 FULTON ST,KORET CSD,SAN FRANCISCO,CA,941171080,160,8553943−000160,34093409,5,100,14,F82FC8510000000000003BE02469B6AE000000A0BE,E7F82FC8513BE02469B6AE0000000000a0,E7017261646975736E6574776F726B7307
401,4641686,SAN ANTONIO PLACE,210  SAN ANTONIO CIR,I/S FRNT MULTI,MOUNTAIN VIEW,CA,940405307,161,4641686−000161,34093409,5,100,14,F82FC8510000000000003BE02469B6AE000000A1BE,E7F82FC8513BE02469B6AE0000000000a1,E7017261646975736E6574776F726B7307
405,1647356,SUMMER HOUSE FS,433  BUENA VISTA AVE,BLDG 523 1ST FLOOR,ALAMEDA,CA,945011956,162,1647356−000162,34093409,5,100,14,F82FC8510000000000003BE02469B6AE000000A2BE,E7F82FC8513BE02469B6AE0000000000a2,E7017261646975736E6574776F726B7307
401,9519806,UNIV OF SAN FRANCISCO,2130 FULTON ST,PHELAN HALL CSD,SAN FRANCISCO,CA,941171080,163,9519806−000163,34093409,5,100,14,F82FC8510000000000003BE02469B6AE000000A3BE,E7F82FC8513BE02469B6AE0000000000a3,E7017261646975736E6574776F726B7307
403,3850612,WESTFIELD OAKRIDGE OS SECURITY,925  BLOSSOM HILL RD,O/S  SECURITY ENTR,SAN JOSE,CA,951231230,164,3850612−000164,34093409,5,100,14,F82FC8510000000000003BE02469B6AE000000A4BE,E7F82FC8513BE02469B6AE0000000000a4,E7017261646975736E6574776F726B7307
403,2210663,CEDAR GLEN APTS FS BOI,2275 S BASCOM AVE,O/S OFC FS BOI 20Z,CAMPBELL,CA,950084353,165,2210663−000165,34093409,5,100,14,F82FC8510000000000003BE02469B6AE000000A5BE,E7F82FC8513BE02469B6AE0000000000a5,E7017261646975736E6574776F726B7307
401,3075745,VG RODEWAY INN FS BOI,101  9TH ST,BOI OUTSIDE,SAN FRANCISCO,CA,941032602,166,3075745−000166,34093409,5,100,14,F82FC8510000000000003BE02469B6AE000000A6BE,E7F82FC8513BE02469B6AE0000000000a6,E7017261646975736E6574776F726B7307
405,3534036,VG BALLENA VILLAGE,1375 BALLENA BLVD,I/S BLG 527 2ND FL,ALAMEDA,CA,945013606,167,3534036−000167,34093409,5,100,14,F82FC8510000000000003BE02469B6AE000000A7BE,E7F82FC8513BE02469B6AE0000000000a7,E7017261646975736E6574776F726B7307
402,9621081,VG LA QUINTA INN,20   AIPORT BLVD,659 8 FL 1 FL BLDG,SOUTH SAN FRANCIS,CA,94080,168,9621081−000168,34093409,5,100,14,F82FC8510000000000003BE02469B6AE000000A8BE,E7F82FC8513BE02469B6AE0000000000a8,E7017261646975736E6574776F726B7307
403,8291413,CEDAR GLEN APTS COI,2275 S BASCOM AVE,NEAR OFFICE,CAMPBELL,CA,950084353,169,8291413−000169,34093409,5,100,14,F82FC8510000000000003BE02469B6AE000000A9BE,E7F82FC8513BE02469B6AE0000000000a9,E7017261646975736E6574776F726B7307
401,3896152,SANTANA ROW GARAGE 1,355  SANTANA ROW,CRATE N BARREL,SAN JOSE,CA,951282049,170,3896152−000170,34093409,5,100,14,F82FC8510000000000003BE02469B6AE000000AABE,E7F82FC8513BE02469B6AE0000000000aa,E7017261646975736E6574776F726B7307
401,3800082,VG EDGEWATER,355  BERRY ST,I/S 20Z,SAN FRANCISCO,CA,941581567,171,3800082−000171,34093409,5,100,14,F82FC8510000000000003BE02469B6AE000000ABBE,E7F82FC8513BE02469B6AE0000000000ab,E7017261646975736E6574776F726B7307
410,3499118,SHERATON PLEASANTON,5990 STONERIDGE MALL RD,I/S EMP BRKRM 12Z,PLEASANTON,CA,945883229,172,3499118−000172,34093409,5,100,14,F82FC8510000000000003BE02469B6AE000000ACBE,E7F82FC8513BE02469B6AE0000000000ac,E7017261646975736E6574776F726B7307
403,3929778,SANTA CLARA UNIVERSITY,500  EL CAMINO REAL,BLDG 307 SWIG HALL,SANTA CLARA,CA,950530001,173,3929778−000173,34093409,5,100,14,F82FC8510000000000003BE02469B6AE000000ADBE,E7F82FC8513BE02469B6AE0000000000ad,E7017261646975736E6574776F726B7307
402,3130934,GREAT MALL BOI OS ENTR4,447  GREAT MALL DR,O/S ENTRANCE 4,MILPITAS,CA,950358041,174,3130934−000174,34093409,5,100,14,F82FC8510000000000003BE02469B6AE000000AEBE,E7F82FC8513BE02469B6AE0000000000ae,E7017261646975736E6574776F726B7307
401,4572259,HOLIDAY INN EXPRESS,550  N POINT ST,I/S 3RD FLOOR,SAN FRANCISCO,CA,941331312,175,4572259−000175,34093409,5,100,14,F82FC8510000000000003BE02469B6AE000000AFBE,E7F82FC8513BE02469B6AE0000000000af,E7017261646975736E6574776F726B7307
401,4672263,WESTFIELD VALLEY FAIR MALL,2855 STEVENS CREEK BLVD,PRKG A I/S NR MACYM,SANTA CLARA,CA,950506709,176,4672263−000176,34093409,5,100,14,F82FC8510000000000003BE02469B6AE000000B0BE,E7F82FC8513BE02469B6AE0000000000b0,E7017261646975736E6574776F726B7307
405,4316378,IMPACT TRANSLOAD,2498 W 19TH ST,O/S BLDG 806 MULTI,OAKLAND,CA,946075030,177,4316378−000177,34093409,5,100,14,F82FC8510000000000003BE02469B6AE000000B1BE,E7F82FC8513BE02469B6AE0000000000b1,E7017261646975736E6574776F726B7307
403,3963196,SANTA CLARA UNIVERSITY,500    EL CAMINO REAL,BLDG 501 GRAHAM HAL,SANTA CLARA,CA,950530001,178,3963196−000178,34093409,5,100,14,F82FC8510000000000003BE02469B6AE000000B2BE,E7F82FC8513BE02469B6AE0000000000b2,E7017261646975736E6574776F726B7307
401,1107638,DAYS INN,895  GEARY,MOTEL 6,SAN FRANCISCO,CA,941097217,179,1107638−000179,34093409,5,100,14,F82FC8510000000000003BE02469B6AE000000B3BE,E7F82FC8513BE02469B6AE0000000000b3,E7017261646975736E6574776F726B7307
403,3397330,VG ALMADEN APTS,1501 ALMADEN EXPY,#2 O/S OFC,SAN JOSE,CA,951251259,180,3397330−000180,34093409,5,100,14,F82FC8510000000000003BE02469B6AE000000B4BE,E7F82FC8513BE02469B6AE0000000000b4,E7017261646975736E6574776F726B7307
402,3992015,VG CERANO,501  MURPHY RANCH RD,I/S FRNT MULTI,MILPITAS,CA,950357913,181,3992015−000181,34093409,5,100,14,F82FC8510000000000003BE02469B6AE000000B5BE,E7F82FC8513BE02469B6AE0000000000b5,E7017261646975736E6574776F726B7307
401,4572258,HOLIDAY INN EXPRESS,550  N POINT ST,I/S 4TH FLOOR,SAN FRANCISCO,CA,941331312,182,4572258−000182,34093409,5,100,14,F82FC8510000000000003BE02469B6AE000000B6BE,E7F82FC8513BE02469B6AE0000000000b6,E7017261646975736E6574776F726B7307
401,9992627,WESTFIELD VALLEY FAIR MALL,2855 STEVENS CREEK BLVD,PRKG A 2 FL ELEVATO,SANTA CLARA,CA,950506709,183,9992627−000183,34093409,5,100,14,F82FC8510000000000003BE02469B6AE000000B7BE,E7F82FC8513BE02469B6AE0000000000b7,E7017261646975736E6574776F726B7307
401,9992620,WESTFIELD VALLEY FAIR MALL,2855 STEVENS CREEK BLVD,PRKG A 2 FL ELEVATO,SANTA CLARA,CA,950506709,184,9992620−000184,34093409,5,100,14,F82FC8510000000000003BE02469B6AE000000B8BE,E7F82FC8513BE02469B6AE0000000000b8,E7017261646975736E6574776F726B7307
401,4672264,WESTFIELD VALLEY FAIR MALL,2855 STEVENS CREEK BLVD,I/S CTR MALL ENTRNC,SANTA CLARA,CA,950506709,185,4672264−000185,34093409,5,100,14,F82FC8510000000000003BE02469B6AE000000B9BE,E7F82FC8513BE02469B6AE0000000000b9,E7017261646975736E6574776F726B7307
401,4572260,HOLIDAY INN EXPRESS,550  N POINT ST,I/S 2ND FLOOR,SAN FRANCISCO,CA,941331312,186,4572260−000186,34093409,5,100,14,F82FC8510000000000003BE02469B6AE000000BABE,E7F82FC8513BE02469B6AE0000000000ba,E7017261646975736E6574776F726B7307
402,1331531,SEAHORSE RANCH,1828 CABRILLO HWY,VENDING AREA,HALF MOON BAY,CA,940191412,187,1331531−000187,34093409,5,100,14,F82FC8510000000000003BE02469B6AE000000BBBE,E7F82FC8513BE02469B6AE0000000000bb,E7017261646975736E6574776F726B7307
401,1849252,BEST WESTERN AMERICANIA HOTEL,121  7TH ST,LOBBY 2 20Z,SAN FRANCISCO,CA,941032835,188,1849252−000188,34093409,5,100,14,F82FC8510000000000003BE02469B6AE000000BCBE,E7F82FC8513BE02469B6AE0000000000bc,E7017261646975736E6574776F726B7307
401,6158427,WESTFIELD SF CENTRE FS BOI,865  MARKET ST,BOI LOADING DOCK,SAN FRANCISCO,CA,941031900,189,6158427−000189,34093409,5,100,14,F82FC8510000000000003BE02469B6AE000000BDBE,E7F82FC8513BE02469B6AE0000000000bd,E7017261646975736E6574776F726B7307
403,9535307,VG ALMADEN LAKE VLG APTS BOI,1045 COLEMAN RD,BOI LUNDRY RM #1,SAN JOSE,CA,951236734,190,9535307−000190,34093409,5,100,14,F82FC8510000000000003BE02469B6AE000000BEBE,E7F82FC8513BE02469B6AE0000000000be,E7017261646975736E6574776F726B7307
401,3142209,REDWOOD INN FS BOI,1530 LOMBARD ST,BOI OUTSIDE,SAN FRANCISCO,CA,941233114,191,3142209−000191,34093409,5,100,14,F82FC8510000000000003BE02469B6AE000000BFBE,E7F82FC8513BE02469B6AE0000000000bf,E7017261646975736E6574776F726B7307
401,8980078,HOLIDAY 0323 INNFISHERMAN WHAR,1300 COLUMBUS AVE,2ND FLOOR VEND AREA,SAN FRANCISCO,CA,941331328,192,8980078−000192,34093409,5,100,14,F82FC8510000000000003BE02469B6AE000000C0BE,E7F82FC8513BE02469B6AE0000000000c0,E7017261646975736E6574776F726B7307
402,1171854,GREAT MALL GFV BBBEYOND,447  GREAT MALL DR,BED BATH BEYOND,MILPITAS,CA,950358041,193,1171854−000193,34093409,5,100,14,F82FC8510000000000003BE02469B6AE000000C1BE,E7F82FC8513BE02469B6AE0000000000c1,E7017261646975736E6574776F726B7307
405,9976180,HOLIDAY INN EXPRESS,66   AIRPORT ACCESS RD,FS BOI 2 FL/COKE BT,OAKLAND,CA,946031078,194,9976180−000194,34093409,5,100,14,F82FC8510000000000003BE02469B6AE000000C2BE,E7F82FC8513BE02469B6AE0000000000c2,E7017261646975736E6574776F726B7307
402,1675082,OCEANO HOTEL AND SPA,280  CAPISTRANO RD,1ST FL NEXT TO ICE,HALF MOON BAY,CA,940194043,195,1675082−000195,34093409,5,100,14,F82FC8510000000000003BE02469B6AE000000C3BE,E7F82FC8513BE02469B6AE0000000000c3,E7017261646975736E6574776F726B7307
403,4585700,SANTA CLARA UNIVERSITY,500  EL CAMINO REAL,BLDG 306 KENNEDY CO,SANTA CLARA,CA,950530001,196,4585700−000196,34093409,5,100,14,F82FC8510000000000003BE02469B6AE000000C4BE,E7F82FC8513BE02469B6AE0000000000c4,E7017261646975736E6574776F726B7307
401,3792433,WESTFIELD METREON,101  4TH ST,I/S LOADING DOCKS M,SAN FRANCISCO,CA,941033003,197,3792433−000197,34093409,5,100,14,F82FC8510000000000003BE02469B6AE000000C5BE,E7F82FC8513BE02469B6AE0000000000c5,E7017261646975736E6574776F726B7307
403,3929770,SANTA CLARA UNIVERSITY,500  EL CAMINO REAL,BLDG 605 SOBRATO HA,SANTA CLARA,CA,950530001,198,3929770−000198,34093409,5,100,14,F82FC8510000000000003BE02469B6AE000000C6BE,E7F82FC8513BE02469B6AE0000000000c6,E7017261646975736E6574776F726B7307
410,1286409,PLEASANTON GLEN APARTMENTS,3955 VINEYARD AVE,WORKOUT AREA,PLEASANTON,CA,945666768,199,1286409−000199,34093409,5,100,14,F82FC8510000000000003BE02469B6AE000000C7BE,E7F82FC8513BE02469B6AE0000000000c7,E7017261646975736E6574776F726B7307
403,4305022,VG CALIFORNIA RIPPED FITNESS,1035 E CAPITOL EXPY,I/S LOBBY 20Z,SAN JOSE,CA,951212415,200,4305022−000200,34093409,5,100,14,F82FC8510000000000003BE02469B6AE000000C8BE,E7F82FC8513BE02469B6AE0000000000c8,E7017261646975736E6574776F726B7307
403,4819899,GRACE BAPTIST,484  E SAN FERNANDO ST,FSV OS I/S GRACE BP,SAN JOSE,CA,951123598,201,4819899−000201,34093409,5,100,14,F82FC8510000000000003BE02469B6AE000000C9BE,E7F82FC8513BE02469B6AE0000000000c9,E7017261646975736E6574776F726B7307
402,2768430,BROOK FUNITURE RENTAL FS COI,30985SANTANA ST,COI WAREHOUSE,HAYWARD,CA,945447029,202,2768430−000202,34093409,5,100,14,F82FC8510000000000003BE02469B6AE000000CABE,E7F82FC8513BE02469B6AE0000000000ca,E7017261646975736E6574776F726B7307
401,3378748,SUNNYVALE TOWN CTR APT,201  W CALIFORNIA ST,I/S OFC MULTI,SUNNYVALE,CA,94086,203,3378748−000203,34093409,5,100,14,F82FC8510000000000003BE02469B6AE000000CBBE,E7F82FC8513BE02469B6AE0000000000cb,E7017261646975736E6574776F726B7307
401,3792435,WESTFIELD METREON,101  4TH ST,I/S BASEMENT MULTI,SAN FRANCISCO,CA,941033003,204,3792435−000204,34093409,5,100,14,F82FC8510000000000003BE02469B6AE000000CCBE,E7F82FC8513BE02469B6AE0000000000cc,E7017261646975736E6574776F726B7307
401,4808719,WESTFIELD VALLEY FAIR MALL,2855 STEVENS CREEK BLVD,PRKG A 2FL I/S NR M,SANTA CLARA,CA,950506709,205,4808719−000205,34093409,5,100,14,F82FC8510000000000003BE02469B6AE000000CDBE,E7F82FC8513BE02469B6AE0000000000cd,E7017261646975736E6574776F726B7307
401,1647161,SHERATON HOTEL FISHERMAN WHARF,2500 MASON ST,3RD FLOOR MIDDLE,SAN FRANCISCO,CA,941331499,206,1647161−000206,34093409,5,100,14,F82FC8510000000000003BE02469B6AE000000CEBE,E7F82FC8513BE02469B6AE0000000000ce,E7017261646975736E6574776F726B7307
403,3929775,SANTA CLARA UNIVERSITY,500  EL CAMINO REAL,BLDG 604 FACILITIES,SANTA CLARA,CA,950530001,207,3929775−000207,34093409,5,100,14,F82FC8510000000000003BE02469B6AE000000CFBE,E7F82FC8513BE02469B6AE0000000000cf,E7017261646975736E6574776F726B7307
401,2116167,HIGHLAND GARDEN APTS FS COI,234  ESCUELA AVE,COI OUTSIDE BY POOL,MOUNTAIN VIEW,CA,940401877,208,2116167−000208,34093409,5,100,14,F82FC8510000000000003BE02469B6AE000000D0BE,E7F82FC8513BE02469B6AE0000000000d0,E7017261646975736E6574776F726B7307
401,7107335,UNIV OF SAN FRANCISCO,2130 FULTON ST,GILSON HALL CSD,SAN FRANCISCO,CA,941171080,209,7107335−000209,34093409,5,100,14,F82FC8510000000000003BE02469B6AE000000D1BE,E7F82FC8513BE02469B6AE0000000000d1,E7017261646975736E6574776F726B7307
401,3799953,GRANADA INN,2515 EL CAMINO REAL,I/S FRNT 20Z,SANTA CLARA,CA,950513094,210,3799953−000210,34093409,5,100,14,F82FC8510000000000003BE02469B6AE000000D2BE,E7F82FC8513BE02469B6AE0000000000d2,E7017261646975736E6574776F726B7307
401,1718268,UNIV OF SAN FRANCISCO,3120 FULTON ST,XAVIER,SAN FRANCISCO,CA,941183813,211,1718268−000211,34093409,5,100,14,F82FC8510000000000003BE02469B6AE000000D3BE,E7F82FC8513BE02469B6AE0000000000d3,E7017261646975736E6574776F726B7307
410,1986293,LA QUINTA INN AND SUITES,6275 DUBLIN BLVD,I/S SECOND FL MULTI,DUBLIN,CA,945687573,212,1986293−000212,34093409,5,100,14,F82FC8510000000000003BE02469B6AE000000D4BE,E7F82FC8513BE02469B6AE0000000000d4,E7017261646975736E6574776F726B7307
401,3785864,GRANADA INN,2515 EL CAMINO REAL,I/S LOBBY ENTRANCE,SANTA CLARA,CA,950513094,213,3785864−000213,34093409,5,100,14,F82FC8510000000000003BE02469B6AE000000D5BE,E7F82FC8513BE02469B6AE0000000000d5,E7017261646975736E6574776F726B7307
401,6158428,WESTFIELD SF CENTRE FS DOI,865  MARKET ST,DOI LOADING DOCK,SAN FRANCISCO,CA,941031900,214,6158428−000214,34093409,5,100,14,F82FC8510000000000003BE02469B6AE000000D6BE,E7F82FC8513BE02469B6AE0000000000d6,E7017261646975736E6574776F726B7307
402,6244757,GOLDEN STATE BAPTIST COLLEGE,3530 DE LA CRUZ BLVD,FS BTLS OUTSIDE GYM,SANTA CLARA,CA,950542111,215,6244757−000215,34093409,5,100,14,F82FC8510000000000003BE02469B6AE000000D7BE,E7F82FC8513BE02469B6AE0000000000d7,E7017261646975736E6574776F726B7307
402,3526302,VG ARCHSTONE SAN BRUNO,1099 ADMIRAL CT,I/S HLLWY NXT TO CA,SAN BRUNO,CA,940662431,216,3526302−000216,34093409,5,100,14,F82FC8510000000000003BE02469B6AE000000D8BE,E7F82FC8513BE02469B6AE0000000000d8,E7017261646975736E6574776F726B7307
402,9621074,VG LA QUINTA INN,20   AIPORT BLVD,659 2 FL FRNT BLDG,SOUTH SAN FRANCIS,CA,94080,217,9621074−000217,34093409,5,100,14,F82FC8510000000000003BE02469B6AE000000D9BE,E7F82FC8513BE02469B6AE0000000000d9,E7017261646975736E6574776F726B7307
402,1940975,HOWARD JOHNSON,190  EL CAMINO REAL,#1 I/S 2 FL,SAN BRUNO,CA,940665552,218,1940975−000218,34093409,5,100,14,F82FC8510000000000003BE02469B6AE000000DABE,E7F82FC8513BE02469B6AE0000000000da,E7017261646975736E6574776F726B7307
401,8980089,HOLIDAY 0323 INN FS BOI,495  BEACH ST,4TH FLR VEND AREA,SAN FRANCISCO,CA,941331328,219,8980089−000219,34093409,5,100,14,F82FC8510000000000003BE02469B6AE000000DBBE,E7F82FC8513BE02469B6AE0000000000db,E7017261646975736E6574776F726B7307
404,4103357,CALIFORNIAS GREAT AMERICA,2401 AGNEW RD,PSYCHO MOUSE LINE C,SANTA CLARA,CA,950541201,220,4103357−000220,34093409,5,100,14,F82FC8510000000000003BE02469B6AE000000DCBE,E7F82FC8513BE02469B6AE0000000000dc,E7017261646975736E6574776F726B7307
402,4602820,CITI GARDEN HOTEL,245  S AIRPORT BLVD,I/S SFO GOODNITE IN,SOUTH SAN FRANCIS,CA,940806703,221,4602820−000221,34093409,5,100,14,F82FC8510000000000003BE02469B6AE000000DDBE,E7F82FC8513BE02469B6AE0000000000dd,E7017261646975736E6574776F726B7307
401,8980086,HOLIDAY 0323 INN FS BOI,495  BEACH ST,3RD FL VEND AREA,SAN FRANCISCO,CA,941331328,222,8980086−000222,34093409,5,100,14,F82FC8510000000000003BE02469B6AE000000DEBE,E7F82FC8513BE02469B6AE0000000000de,E7017261646975736E6574776F726B7307
401,4672265,WESTFIELD VALLEY FAIR MALL,2855 STEVENS CREEK BLVD,PRKG B 2FL I/S NR N,SANTA CLARA,CA,950506709,223,4672265−000223,34093409,5,100,14,F82FC8510000000000003BE02469B6AE000000DFBE,E7F82FC8513BE02469B6AE0000000000df,E7017261646975736E6574776F726B7307
401,8980087,HOLIDAY 0323 INN FS BOI,1300 COLUMBUS AVE,5TH FLR VENDING ARE,SAN FRANCISCO,CA,941331328,224,8980087−000224,34093409,5,100,14,F82FC8510000000000003BE02469B6AE000000E0BE,E7F82FC8513BE02469B6AE0000000000e0,E7017261646975736E6574776F726B7307
410,1986292,LA QUINTA INN AND SUITES,6275 DUBLIN BLVD,I/S FIRST FL ICE VE,DUBLIN,CA,945687573,225,1986292−000225,34093409,5,100,14,F82FC8510000000000003BE02469B6AE000000E1BE,E7F82FC8513BE02469B6AE0000000000e1,E7017261646975736E6574776F726B7307
401,1251801,SHERATON HOTEL FISHERMAN WHARF,2500 MASON ST,3RD FLOOR MIDDLE,SAN FRANCISCO,CA,941331499,226,1251801−000226,34093409,5,100,14,F82FC8510000000000003BE02469B6AE000000E2BE,E7F82FC8513BE02469B6AE0000000000e2,E7017261646975736E6574776F726B7307
401,9446049,SUPER 8 MOTEL FS BOI,1665 W EL CAMINO REAL,BOI LOBBY,MOUNTAIN VIEW,CA,940402495,227,9446049−000227,34093409,5,100,14,F82FC8510000000000003BE02469B6AE000000E3BE,E7F82FC8513BE02469B6AE0000000000e3,E7017261646975736E6574776F726B7307
401,3918095,WESTGATE MALL,1600 SARATOGA AVE,FS BOI I/S BRNES &,SAN JOSE,CA,951295101,228,3918095−000228,34093409,5,100,14,F82FC8510000000000003BE02469B6AE000000E4BE,E7F82FC8513BE02469B6AE0000000000e4,E7017261646975736E6574776F726B7307
401,1313399,THRIFTY CAR RENTAL,350  O FARRELL,GARGE,SAN FRANCISCO,CA,94103,229,1313399−000229,34093409,5,100,14,F82FC8510000000000003BE02469B6AE000000E5BE,E7F82FC8513BE02469B6AE0000000000e5,E7017261646975736E6574776F726B7307
401,8812438,HOWARD JOHNSON FS BOI,2499 EL CAMINO REAL,BOI,SANTA CLARA,CA,950513001,230,8812438−000230,34093409,5,100,14,F82FC8510000000000003BE02469B6AE000000E6BE,E7F82FC8513BE02469B6AE0000000000e6,E7017261646975736E6574776F726B7307
403,3929755,SANTA CLARA UNIVERSITY,500  EL CAMINO REAL,BLDG 114 MUSIC DANC,SANTA CLARA,CA,950530001,231,3929755−000231,34093409,5,100,14,F82FC8510000000000003BE02469B6AE000000E7BE,E7F82FC8513BE02469B6AE0000000000e7,E7017261646975736E6574776F726B7307
402,9621076,VG LA QUINTA INN,20   AIPORT BLVD,659 3 FL FRNT BLDG,SOUTH SAN FRANCIS,CA,94080,232,9621076−000232,34093409,5,100,14,F82FC8510000000000003BE02469B6AE000000E8BE,E7F82FC8513BE02469B6AE0000000000e8,E7017261646975736E6574776F726B7307
402,1073002,CASA DE AMIGOS FS COI,1085 TASMAN DR,LAUNDRY RM @ 9TH ST,SUNNYVALE,CA,940895001,233,1073002−000233,34093409,5,100,14,F82FC8510000000000003BE02469B6AE000000E9BE,E7F82FC8513BE02469B6AE0000000000e9,E7017261646975736E6574776F726B7307
403,4828313,OAKRIDGE TARGET GARAGE 5,925  BLOSSOM HILL RD,PARKING GARAGE 4TH,SAN JOSE,CA,951231230,234,4828313−000234,34093409,5,100,14,F82FC8510000000000003BE02469B6AE000000EABE,E7F82FC8513BE02469B6AE0000000000ea,E7017261646975736E6574776F726B7307
410,2191794,VG STONEY CREEK APARTMENTS,5896 EAST AVE,I/S RENTAL OFC MULT,LIVERMORE,CA,945507320,235,2191794−000235,34093409,5,100,14,F82FC8510000000000003BE02469B6AE000000EBBE,E7F82FC8513BE02469B6AE0000000000eb,E7017261646975736E6574776F726B7307
410,3573505,VG ARCHSTONE EMERALD PARK,5095 HAVEN PLACE,I/S BY WORK OUT RM,DUBLIN,CA,94568,236,3573505−000236,34093409,5,100,14,F82FC8510000000000003BE02469B6AE000000ECBE,E7F82FC8513BE02469B6AE0000000000ec,E7017261646975736E6574776F726B7307
403,4516859,RIVER WALK APTS FS BOI,1510 S BASCOM AVE,BOI OUTSIDE BY POOL,CAMPBELL,CA,950080626,237,4516859−000237,34093409,5,100,14,F82FC8510000000000003BE02469B6AE000000EDBE,E7F82FC8513BE02469B6AE0000000000ed,E7017261646975736E6574776F726B7307
401,3896164,SANTANA ROW LB 2ND FL,355  SANTANA ROW,LEFT BANK 2ND FL,SAN JOSE,CA,951282049,238,3896164−000238,34093409,5,100,14,F82FC8510000000000003BE02469B6AE000000EEBE,E7F82FC8513BE02469B6AE0000000000ee,E7017261646975736E6574776F726B7307
402,1494933,VG ENCLAVE APTS,4355 RENAISSANCE DR,OUTSIDE POOL AREA,SAN JOSE,CA,951341556,239,1494933−000239,34093409,5,100,14,F82FC8510000000000003BE02469B6AE000000EFBE,E7F82FC8513BE02469B6AE0000000000ef,E7017261646975736E6574776F726B7307
402,4602908,CITI GARDEN HOTEL,245  S AIRPORT BLVD,I/S SFO GOODNITE IN,SOUTH SAN FRANCIS,CA,940806703,240,4602908−000240,34093409,5,100,14,F82FC8510000000000003BE02469B6AE000000F0BE,E7F82FC8513BE02469B6AE0000000000f0,E7017261646975736E6574776F726B7307
405,6501587,VG PINNACLE CITY CTR BOI,22800MERIDIAN DR,BOI REA HALLWAY ARE,HAYWARD,CA,945416525,241,6501587−000241,34093409,5,100,14,F82FC8510000000000003BE02469B6AE000000F1BE,E7F82FC8513BE02469B6AE0000000000f1,E7017261646975736E6574776F726B7307
403,4234334,PALM VALLEY APPT,100  PALM VALLEY BLVD,I/S POOL AREA MULTI,SAN JOSE,CA,951231092,242,4234334−000242,34093409,5,100,14,F82FC8510000000000003BE02469B6AE000000F2BE,E7F82FC8513BE02469B6AE0000000000f2,E7017261646975736E6574776F726B7307
404,4106278,CALIFORNIAS GREAT AMERICA,2401 AGNEW RD,GOLD STRIKER LINE 1,SANTA CLARA,CA,950541201,243,4106278−000243,34093409,5,100,14,F82FC8510000000000003BE02469B6AE000000F3BE,E7F82FC8513BE02469B6AE0000000000f3,E7017261646975736E6574776F726B7307
401,8854896,UNIV OF SAN FRANCISCO,2130 FULTON ST,HAYES HEALY BSBL FL,SAN FRANCISCO,CA,941171080,244,8854896−000244,34093409,5,100,14,F82FC8510000000000003BE02469B6AE000000F4BE,E7F82FC8513BE02469B6AE0000000000f4,E7017261646975736E6574776F726B7307
401,1251800,SHERATON HOTEL FISHERMAN WHARF,2500 MASON ST,2ND FLOOR SOUTH,SAN FRANCISCO,CA,941331499,245,1251800−000245,34093409,5,100,14,F82FC8510000000000003BE02469B6AE000000F5BE,E7F82FC8513BE02469B6AE0000000000f5,E7017261646975736E6574776F726B7307
401,2768563,HOLIDAY 0323 INN FS BOI,495  BEACH ST,5TH FL VENDING AREA,SAN FRANCISCO,CA,941331328,246,2768563−000246,34093409,5,100,14,F82FC8510000000000003BE02469B6AE000000F6BE,E7F82FC8513BE02469B6AE0000000000f6,E7017261646975736E6574776F726B7307
402,9621077,VG LA QUINTA INN,20   AIPORT BLVD,659 4 FL FRNT BLDG,SOUTH SAN FRANCIS,CA,94080,247,9621077−000247,34093409,5,100,14,F82FC8510000000000003BE02469B6AE000000F7BE,E7F82FC8513BE02469B6AE0000000000f7,E7017261646975736E6574776F726B7307
402,3675237,SEAHORSE RANCH,1828 N CABRILLO HWY,I/S REFRESHMENT VEN,HALF MOON BAY,CA,94019,248,3675237−000248,34093409,5,100,14,F82FC8510000000000003BE02469B6AE000000F8BE,E7F82FC8513BE02469B6AE0000000000f8,E7017261646975736E6574776F726B7307
401,2166600,PARK LANE APTS,520  WALKER DR,COI,MOUNTAIN VIEW,CA,940433670,249,2166600−000249,34093409,5,100,14,F82FC8510000000000003BE02469B6AE000000F9BE,E7F82FC8513BE02469B6AE0000000000f9,E7017261646975736E6574776F726B7307
402,3202645,MISSION INN,5630 MISSION ST,I/S OUTSIDE 20Z,SAN FRANCISCO,CA,941124298,250,3202645−000250,34093409,5,100,14,F82FC8510000000000003BE02469B6AE000000FABE,E7F82FC8513BE02469B6AE0000000000fa,E7017261646975736E6574776F726B7307
402,3713141,PACIFICA BEACH RESORT,525  CRESPI DR,I/S BLDG 2FLOOR 1 2,PACIFICA,CA,940443423,251,3713141−000251,34093409,5,100,14,F82FC8510000000000003BE02469B6AE000000FBBE,E7F82FC8513BE02469B6AE0000000000fb,E7017261646975736E6574776F726B7307
401,3211189,CASA ALBERTA,1575 TENAKA PL,O/S POOL MULTI,SUNNYVALE,CA,940874547,252,3211189−000252,34093409,5,100,14,F82FC8510000000000003BE02469B6AE000000FCBE,E7F82FC8513BE02469B6AE0000000000fc,E7017261646975736E6574776F726B7307